{
    "links": {
        "self": "http://www.neowsapp.com/rest/v1/neo/3624755?api_key=iIulBulltgU6a56xZRHN4H3l9WmuAYTsLGpBGhQ2"
    },
    "id": "3624755",
    "neo_reference_id": "3624755",
    "name": "(2013 BS18)",
    "designation": "2013 BS18",
    "nasa_jpl_url": "http://ssd.jpl.nasa.gov/sbdb.cgi?sstr=3624755",
    "absolute_magnitude_h": 22.4,
    "estimated_diameter": {
        "kilometers": {
            "estimated_diameter_min": 0.0880146521,
            "estimated_diameter_max": 0.1968067451
        },
        "meters": {
            "estimated_diameter_min": 88.0146520901,
            "estimated_diameter_max": 196.8067450894
        },
        "miles": {
            "estimated_diameter_min": 0.0546897524,
            "estimated_diameter_max": 0.122290004
        },
        "feet": {
            "estimated_diameter_min": 288.7619911632,
            "estimated_diameter_max": 645.6914415591
        }
    },
    "is_potentially_hazardous_asteroid": false,
    "close_approach_data": [
        {
            "close_approach_date": "1917-07-29",
            "close_approach_date_full": "1917-Jul-29 00:07",
            "epoch_date_close_approach": -1654473180000,
            "relative_velocity": {
                "kilometers_per_second": "22.7160773677",
                "kilometers_per_hour": "81777.8785236714",
                "miles_per_hour": "50813.5934637779"
            },
            "miss_distance": {
                "astronomical": "0.3723773713",
                "lunar": "144.8547974357",
                "kilometers": "55706861.582679131",
                "miles": "34614638.6853527678"
            },
            "orbiting_body": "Earth"
        },
        {
            "close_approach_date": "1922-01-18",
            "close_approach_date_full": "1922-Jan-18 03:18",
            "epoch_date_close_approach": -1513284120000,
            "relative_velocity": {
                "kilometers_per_second": "26.3617791345",
                "kilometers_per_hour": "94902.4048842644",
                "miles_per_hour": "58968.6637460031"
            },
            "miss_distance": {
                "astronomical": "0.4841406588",
                "lunar": "188.3307162732",
                "kilometers": "72426411.336876756",
                "miles": "45003685.1561249928"
            },
            "orbiting_body": "Earth"
        },
        {
            "close_approach_date": "1936-08-09",
            "close_approach_date_full": "1936-Aug-09 15:14",
            "epoch_date_close_approach": -1053852360000,
            "relative_velocity": {
                "kilometers_per_second": "16.6373996911",
                "kilometers_per_hour": "59894.6388880864",
                "miles_per_hour": "37216.1993691001"
            },
            "miss_distance": {
                "astronomical": "0.1652019195",
                "lunar": "64.2635466855",
                "kilometers": "24713855.277111465",
                "miles": "15356477.579869617"
            },
            "orbiting_body": "Earth"
        },
        {
            "close_approach_date": "2010-08-03",
            "close_approach_date_full": "2010-Aug-03 03:57",
            "epoch_date_close_approach": 1280807820000,
            "relative_velocity": {
                "kilometers_per_second": "20.5278348226",
                "kilometers_per_hour": "73900.2053611969",
                "miles_per_hour": "45918.7137145726"
            },
            "miss_distance": {
                "astronomical": "0.2969462399",
                "lunar": "115.5120873211",
                "kilometers": "44422524.993549013",
                "miles": "27602877.0685738594"
            },
            "orbiting_body": "Earth"
        },
        {
            "close_approach_date": "2012-11-20",
            "close_approach_date_full": "2012-Nov-20 13:08",
            "epoch_date_close_approach": 1353416880000,
            "relative_velocity": {
                "kilometers_per_second": "9.2304638804",
                "kilometers_per_hour": "33229.6699695945",
                "miles_per_hour": "20647.6246541628"
            },
            "miss_distance": {
                "astronomical": "0.1446096424",
                "lunar": "56.2531508936",
                "kilometers": "21633294.484501688",
                "miles": "13442305.8646637744"
            },
            "orbiting_body": "Earth"
        }
    ],
    "orbital_data": {
        "orbit_id": "8",
        "orbit_determination_date": "2017-04-06 08:47:04",
        "first_observation_date": "2013-01-18",
        "last_observation_date": "2013-02-09",
        "data_arc_in_days": 22,
        "observations_used": 24,
        "orbit_uncertainty": "7",
        "minimum_orbit_intersection": ".0384775",
        "jupiter_tisserand_invariant": "4.137",
        "epoch_osculation": "2459000.5",
        "eccentricity": ".4912183515406416",
        "semi_major_axis": "1.646812055381124",
        "inclination": "4.464053311256941",
        "ascending_node_longitude": "301.0057543190152",
        "orbital_period": "771.9061182181958",
        "perihelion_distance": ".8378677522395523",
        "perihelion_argument": "91.04031765646752",
        "aphelion_distance": "2.455756358522695",
        "perihelion_time": "2459319.929087964896",
        "mean_anomaly": "211.0253138907536",
        "mean_motion": ".4663779590593143",
        "equinox": "J2000",
        "orbit_class": {
            "orbit_class_type": "APO",
            "orbit_class_description": "Near-Earth asteroid orbits which cross the Earth’s orbit similar to that of 1862 Apollo",
            "orbit_class_range": "a (semi-major axis) > 1.0 AU; q (perihelion) < 1.017 AU"
        }
    },
    "is_sentry_object": false
}